STARLINK-31707          
1 59736U 24090G   26067.39950523  .00000319  00000+0  21138-4 0  9993
2 59736  43.0032 190.7090 0001848 193.7061 166.3741 15.27582757103245
BLUEBON                 
1 62688U 25009CH  26068.70316231  .00010452  00000+0  37313-3 0  9992
2 62688  97.4017 152.2033 0001193  43.3900 316.7434 15.29047253 63767
